[{"OBJECT_NAME":"COSMOS 2251 DEB","OBJECT_ID":"1993-036FR","EPOCH":"2026-03-03T18:45:56.167776","MEAN_MOTION":14.60702632,"ECCENTRICITY":0.0075915,"INCLINATION":74.0697,"RA_OF_ASC_NODE":205.4765,"ARG_OF_PERICENTER":230.4064,"MEAN_ANOMALY":275.1749,"EPHEMERIS_TYPE":0,"CLASSIFICATION_TYPE":"U","NORAD_CAT_ID":33982,"ELEMENT_SET_NO":999,"REV_AT_EPOCH":90342,"BSTAR":0.00087269,"MEAN_MOTION_DOT":4.4e-5,"MEAN_MOTION_DDOT":0},{"OBJECT_NAME":"COSMOS 2251 DEB","OBJECT_ID":"1993-036FS","EPOCH":"2026-03-03T19:49:43.649760","MEAN_MOTION":14.51046711,"ECCENTRICITY":0.00188908,"INCLINATION":74.0535,"RA_OF_ASC_NODE":354.6982,"ARG_OF_PERICENTER":76.9039,"MEAN_ANOMALY":313.8438,"EPHEMERIS_TYPE":0,"CLASSIFICATION_TYPE":"U","NORAD_CAT_ID":33983,"ELEMENT_SET_NO":999,"REV_AT_EPOCH":89805,"BSTAR":0.00064301933,"MEAN_MOTION_DOT":2.525e-5,"MEAN_MOTION_DDOT":0},{"OBJECT_NAME":"COSMOS 2251 DEB","OBJECT_ID":"1993-036FT","EPOCH":"2026-03-03T19:54:40.894272","MEAN_MOTION":14.67243204,"ECCENTRICITY":0.0023897,"INCLINATION":74.0091,"RA_OF_ASC_NODE":190.4115,"ARG_OF_PERICENTER":359.427,"MEAN_ANOMALY":124.3383,"EPHEMERIS_TYPE":0,"CLASSIFICATION_TYPE":"U","NORAD_CAT_ID":33984,"ELEMENT_SET_NO":999,"REV_AT_EPOCH":90255,"BSTAR":0.0011750592,"MEAN_MOTION_DOT":6.624e-5,"MEAN_MOTION_DDOT":0},{"OBJECT_NAME":"COSMOS 2251 DEB","OBJECT_ID":"1993-036FV","EPOCH":"2026-03-03T16:33:57.484224","MEAN_MOTION":14.43673692,"ECCENTRICITY":0.00416014,"INCLINATION":74.037,"RA_OF_ASC_NODE":152.2587,"ARG_OF_PERICENTER":210.5736,"MEAN_ANOMALY":300.6506,"EPHEMERIS_TYPE":0,"CLASSIFICATION_TYPE":"U","NORAD_CAT_ID":33986,"ELEMENT_SET_NO":999,"REV_AT_EPOCH":89196,"BSTAR":0.00083576461,"MEAN_MOTION_DOT":2.841e-5,"MEAN_MOTION_DDOT":0},{"OBJECT_NAME":"COSMOS 2251 DEB","OBJECT_ID":"1993-036FZ","EPOCH":"2026-03-04T05:04:46.722432","MEAN_MOTION":13.50139472,"ECCENTRICITY":0.0405015,"INCLINATION":73.9286,"RA_OF_ASC_NODE":155.1895,"ARG_OF_PERICENTER":160.6939,"MEAN_ANOMALY":228.3393,"EPHEMERIS_TYPE":0,"CLASSIFICATION_TYPE":"U","NORAD_CAT_ID":33990,"ELEMENT_SET_NO":999,"REV_AT_EPOCH":83829,"BSTAR":0.0010033,"MEAN_MOTION_DOT":1.045e-5,"MEAN_MOTION_DDOT":0},{"OBJECT_NAME":"COSMOS 2251 DEB","OBJECT_ID":"1993-036GB","EPOCH":"2026-03-03T20:49:56.443296","MEAN_MOTION":14.67034972,"ECCENTRICITY":0.0054759,"INCLINATION":74.0244,"RA_OF_ASC_NODE":181.1505,"ARG_OF_PERICENTER":279.2608,"MEAN_ANOMALY":220.3541,"EPHEMERIS_TYPE":0,"CLASSIFICATION_TYPE":"U","NORAD_CAT_ID":33992,"ELEMENT_SET_NO":999,"REV_AT_EPOCH":90314,"BSTAR":0.0011393,"MEAN_MOTION_DOT":6.508e-5,"MEAN_MOTION_DDOT":0},{"OBJECT_NAME":"COSMOS 2251 DEB","OBJECT_ID":"1993-036GD","EPOCH":"2026-03-04T01:11:59.803008","MEAN_MOTION":14.41280027,"ECCENTRICITY":0.0022659,"INCLINATION":74.0432,"RA_OF_ASC_NODE":39.9302,"ARG_OF_PERICENTER":159.7282,"MEAN_ANOMALY":267.6327,"EPHEMERIS_TYPE":0,"CLASSIFICATION_TYPE":"U","NORAD_CAT_ID":33994,"ELEMENT_SET_NO":999,"REV_AT_EPOCH":89591,"BSTAR":0.00013354,"MEAN_MOTION_DOT":4.07e-6,"MEAN_MOTION_DDOT":0},{"OBJECT_NAME":"COSMOS 2251 DEB","OBJECT_ID":"1993-036GE","EPOCH":"2026-03-04T02:20:12.020640","MEAN_MOTION":14.35247736,"ECCENTRICITY":0.0060336,"INCLINATION":74.0639,"RA_OF_ASC_NODE":330.4577,"ARG_OF_PERICENTER":323.149,"MEAN_ANOMALY":36.5522,"EPHEMERIS_TYPE":0,"CLASSIFICATION_TYPE":"U","NORAD_CAT_ID":33995,"ELEMENT_SET_NO":999,"REV_AT_EPOCH":88686,"BSTAR":0.0011748,"MEAN_MOTION_DOT":3.408e-5,"MEAN_MOTION_DDOT":0},{"OBJECT_NAME":"COSMOS 2251 DEB","OBJECT_ID":"1993-036GJ","EPOCH":"2026-03-04T02:57:46.278720","MEAN_MOTION":14.85456619,"ECCENTRICITY":0.0047001,"INCLINATION":73.916,"RA_OF_ASC_NODE":68.1892,"ARG_OF_PERICENTER":300.7019,"MEAN_ANOMALY":58.9533,"EPHEMERIS_TYPE":0,"CLASSIFICATION_TYPE":"U","NORAD_CAT_ID":33999,"ELEMENT_SET_NO":999,"REV_AT_EPOCH":90458,"BSTAR":0.0021172,"MEAN_MOTION_DOT":0.00018642,"MEAN_MOTION_DDOT":0},{"OBJECT_NAME":"COSMOS 2251 DEB","OBJECT_ID":"1993-036GL","EPOCH":"2026-03-04T03:50:16.032192","MEAN_MOTION":14.3720579,"ECCENTRICITY":0.0020548,"INCLINATION":74.0381,"RA_OF_ASC_NODE":131.8664,"ARG_OF_PERICENTER":201.0172,"MEAN_ANOMALY":187.785,"EPHEMERIS_TYPE":0,"CLASSIFICATION_TYPE":"U","NORAD_CAT_ID":34001,"ELEMENT_SET_NO":999,"REV_AT_EPOCH":89316,"BSTAR":0.00019924,"MEAN_MOTION_DOT":5.68e-6,"MEAN_MOTION_DDOT":0},{"OBJECT_NAME":"COSMOS 2251 DEB","OBJECT_ID":"1993-036GN","EPOCH":"2026-03-03T05:34:32.073888","MEAN_MOTION":13.84585483,"ECCENTRICITY":0.02785808,"INCLINATION":74.0782,"RA_OF_ASC_NODE":149.6113,"ARG_OF_PERICENTER":243.6176,"MEAN_ANOMALY":113.611,"EPHEMERIS_TYPE":0,"CLASSIFICATION_TYPE":"U","NORAD_CAT_ID":34003,"ELEMENT_SET_NO":999,"REV_AT_EPOCH":85539,"BSTAR":0.0022600449,"MEAN_MOTION_DOT":3.406e-5,"MEAN_MOTION_DDOT":0},{"OBJECT_NAME":"COSMOS 2251 DEB","OBJECT_ID":"1993-036GP","EPOCH":"2026-03-03T16:38:22.535232","MEAN_MOTION":14.49894539,"ECCENTRICITY":0.00298571,"INCLINATION":74.0361,"RA_OF_ASC_NODE":161.2142,"ARG_OF_PERICENTER":160.6372,"MEAN_ANOMALY":199.593,"EPHEMERIS_TYPE":0,"CLASSIFICATION_TYPE":"U","NORAD_CAT_ID":34004,"ELEMENT_SET_NO":999,"REV_AT_EPOCH":89203,"BSTAR":0.0015227837,"MEAN_MOTION_DOT":5.895e-5,"MEAN_MOTION_DDOT":0},{"OBJECT_NAME":"COSMOS 2251 DEB","OBJECT_ID":"1993-036GQ","EPOCH":"2026-03-04T00:35:42.689760","MEAN_MOTION":14.40379495,"ECCENTRICITY":0.0020138,"INCLINATION":74.0437,"RA_OF_ASC_NODE":63.4559,"ARG_OF_PERICENTER":168.496,"MEAN_ANOMALY":253.8634,"EPHEMERIS_TYPE":0,"CLASSIFICATION_TYPE":"U","NORAD_CAT_ID":34005,"ELEMENT_SET_NO":999,"REV_AT_EPOCH":89549,"BSTAR":0.00015027,"MEAN_MOTION_DOT":4.52e-6,"MEAN_MOTION_DDOT":0},{"OBJECT_NAME":"COSMOS 2251 DEB","OBJECT_ID":"1993-036GR","EPOCH":"2026-03-03T19:40:07.983840","MEAN_MOTION":15.03006194,"ECCENTRICITY":0.0011472,"INCLINATION":74.0536,"RA_OF_ASC_NODE":339.0163,"ARG_OF_PERICENTER":242.5129,"MEAN_ANOMALY":173.8784,"EPHEMERIS_TYPE":0,"CLASSIFICATION_TYPE":"U","NORAD_CAT_ID":34006,"ELEMENT_SET_NO":999,"REV_AT_EPOCH":89883,"BSTAR":0.004802,"MEAN_MOTION_DOT":0.00065294,"MEAN_MOTION_DDOT":0},{"OBJECT_NAME":"COSMOS 2251 DEB","OBJECT_ID":"1993-036GS","EPOCH":"2026-03-04T00:45:50.688288","MEAN_MOTION":14.65525896,"ECCENTRICITY":0.0047318,"INCLINATION":74.0192,"RA_OF_ASC_NODE":190.3169,"ARG_OF_PERICENTER":303.6994,"MEAN_ANOMALY":55.9668,"EPHEMERIS_TYPE":0,"CLASSIFICATION_TYPE":"U","NORAD_CAT_ID":34007,"ELEMENT_SET_NO":999,"REV_AT_EPOCH":90270,"BSTAR":0.0010834,"MEAN_MOTION_DOT":5.945e-5,"MEAN_MOTION_DDOT":0},{"OBJECT_NAME":"COSMOS 2251 DEB","OBJECT_ID":"1993-036GT","EPOCH":"2026-03-03T18:04:02.109216","MEAN_MOTION":14.33209705,"ECCENTRICITY":0.00230927,"INCLINATION":74.0347,"RA_OF_ASC_NODE":182.4578,"ARG_OF_PERICENTER":163.5768,"MEAN_ANOMALY":268.3865,"EPHEMERIS_TYPE":0,"CLASSIFICATION_TYPE":"U","NORAD_CAT_ID":34008,"ELEMENT_SET_NO":999,"REV_AT_EPOCH":89125,"BSTAR":0.00015727697,"MEAN_MOTION_DOT":4.08e-6,"MEAN_MOTION_DDOT":0}]
