COSMOS 2251 DEB         
1 33982U 93036FR  26062.78190009  .00004400  00000+0  87269-3 0  9998
2 33982  74.0697 205.4765 0075915 230.4064 275.1749 14.60702632903429
COSMOS 2251 DEB         
1 33983U 93036FS  26062.82619965  .00002525  00000+0  64302-3 0  9990
2 33983  74.0535 354.6982 0018890  76.9039 313.8438 14.51046711898059
COSMOS 2251 DEB         
1 33984U 93036FT  26062.82963998  .00006624  00000+0  11751-2 0  9992
2 33984  74.0091 190.4115 0023897 359.4270 124.3383 14.67243204902558
COSMOS 2251 DEB         
1 33986U 93036FV  26062.69024866  .00002841  00000+0  83576-3 0  9993
2 33986  74.0370 152.2587 0041601 210.5736 300.6506 14.43673692891966
COSMOS 2251 DEB         
1 33990U 93036FZ  26063.21165188  .00001045  00000+0  10033-2 0  9992
2 33990  73.9286 155.1895 0405015 160.6939 228.3393 13.50139472838299
COSMOS 2251 DEB         
1 33992U 93036GB  26062.86801439  .00006508  00000+0  11393-2 0  9999
2 33992  74.0244 181.1505 0054759 279.2608 220.3541 14.67034972903141
COSMOS 2251 DEB         
1 33994U 93036GD  26063.04999772  .00000407  00000+0  13354-3 0  9992
2 33994  74.0432  39.9302 0022659 159.7282 267.6327 14.41280027895918
COSMOS 2251 DEB         
1 33995U 93036GE  26063.09736135  .00003408  00000+0  11748-2 0  9998
2 33995  74.0639 330.4577 0060336 323.1490  36.5522 14.35247736886860
COSMOS 2251 DEB         
1 33999U 93036GJ  26063.12345230  .00018642  00000+0  21172-2 0  9996
2 33999  73.9160  68.1892 0047001 300.7019  58.9533 14.85456619904585
COSMOS 2251 DEB         
1 34001U 93036GL  26063.15990778  .00000568  00000+0  19924-3 0  9998
2 34001  74.0381 131.8664 0020548 201.0172 187.7850 14.37205790893165
COSMOS 2251 DEB         
1 34003U 93036GN  26062.23231567  .00003406  00000+0  22600-2 0  9990
2 34003  74.0782 149.6113 0278580 243.6176 113.6110 13.84585483855396
COSMOS 2251 DEB         
1 34004U 93036GP  26062.69331638  .00005895  00000+0  15228-2 0  9993
2 34004  74.0361 161.2142 0029857 160.6372 199.5930 14.49894539892031
COSMOS 2251 DEB         
1 34005U 93036GQ  26063.02479965  .00000452  00000+0  15027-3 0  9990
2 34005  74.0437  63.4559 0020138 168.4960 253.8634 14.40379495895491
COSMOS 2251 DEB         
1 34006U 93036GR  26062.81953685  .00065294  00000+0  48020-2 0  9996
2 34006  74.0536 339.0163 0011472 242.5129 173.8784 15.03006194898838
COSMOS 2251 DEB         
1 34007U 93036GS  26063.03183667  .00005945  00000+0  10834-2 0  9996
2 34007  74.0192 190.3169 0047318 303.6994  55.9668 14.65525896902703
COSMOS 2251 DEB         
1 34008U 93036GT  26062.75280219  .00000408  00000+0  15728-3 0  9993
2 34008  74.0347 182.4578 0023092 163.5768 268.3865 14.33209705891256
